{
  "type": "FeatureCollection",
  "features": [
    {
      "type": "Feature",
      "properties": { "name": "Den Bosch to Kathmandu", "status": "planned" },
      "geometry": {
        "type": "LineString",
        "coordinates": [
          [5.318, 51.727],
          [8.682, 50.110],
          [11.575, 48.137],
          [16.373, 48.208],
          [19.040, 47.498],
          [21.312, 46.186],
          [24.151, 45.798],
          [24.617, 45.604],
          [24.680, 45.150],
          [25.941, 45.233],
          [26.103, 44.427],
          [27.468, 42.506],
          [27.973, 42.062],
          [28.978, 41.008],
          [32.860, 39.933],
          [39.905, 39.750],
          [43.100, 39.600],
          [46.291, 38.080],
          [48.290, 38.250],
          [51.389, 35.689],
          [54.300, 36.400],
          [57.681, 36.213],
          [59.606, 36.297],
          [58.383, 37.950],
          [61.830, 37.600],
          [63.578, 39.074],
          [64.421, 39.768],
          [66.975, 39.654],
          [68.780, 38.560],
          [69.780, 37.910],
          [71.553, 37.489],
          [73.967, 38.172],
          [73.252, 39.730],
          [72.802, 40.528],
          [73.910, 39.680],
          [75.989, 39.470],
          [75.230, 37.770],
          [75.420, 36.850],
          [74.661, 36.323],
          [74.310, 35.920],
          [73.047, 33.684],
          [74.350, 31.558],
          [74.872, 31.634],
          [77.209, 28.613],
          [78.008, 27.177],
          [80.946, 26.847],
          [83.465, 27.510],
          [83.985, 28.210],
          [85.324, 27.717]
        ]
      }
    },
    {
      "type": "Feature",
      "properties": { "name": "The gap — route undecided", "status": "open" },
      "geometry": {
        "type": "LineString",
        "coordinates": [
          [85.324, 27.717],
          [88.100, 27.500],
          [95.000, 27.000],
          [102.712, 25.038],
          [102.135, 19.885]
        ]
      }
    },
    {
      "type": "Feature",
      "properties": { "name": "Laos to Koh Lanta", "status": "planned" },
      "geometry": {
        "type": "LineString",
        "coordinates": [
          [102.135, 19.885],
          [100.405, 20.261],
          [99.831, 19.907],
          [98.985, 18.788],
          [99.126, 16.884],
          [100.502, 13.756],
          [99.958, 12.568],
          [99.180, 10.493],
          [98.906, 8.086],
          [99.036, 7.607]
        ]
      }
    }
  ]
}
